NORAD_CAT_ID,OBJECT_NAME,OBJECT_TYPE,EPOCH,MEAN_MOTION,ECCENTRICITY,INCLINATION,RA_OF_ASC_NODE,ARG_OF_PERICENTER,MEAN_ANOMALY,BSTAR,MEAN_MOTION_DOT,MEAN_MOTION_DDOT,TLE_LINE0,TLE_LINE1,TLE_LINE2,SEMIMAJOR_AXIS,PERIOD,APOGEE,PERIGEE,DECAYED
53435.0,STARLINK-4542,PAYLOAD,2024-08-03 16:35:16,15.08849499,0.0001523,53.2162,201.1038,86.6926,273.424,5.9697e-05,6.62e-06,0.0,0 STARLINK-4542,1 53435U 22097AZ  24216.69116452  .00000662  00000-0  59697-4 0  9993,2 53435  53.2162 201.1038 0001523  86.6926 273.4240 15.08849499110757,6917.851,95.437,540.77,538.663,0.0
53435.0,STARLINK-4542,PAYLOAD,2024-08-04 05:18:22,15.08842301,0.0001744,53.2173,198.7241,95.561,264.5581,9.7034e-05,1.257e-05,0.0,0 STARLINK-4542,1 53435U 22097AZ  24217.22108799  .00001257  00000-0  97034-4 0  9996,2 53435  53.2173 198.7241 0001744  95.5610 264.5581 15.08842301110372,6917.873,95.437,540.945,538.532,0.0
53435.0,STARLINK-4542,PAYLOAD,2024-08-04 22:47:36,15.0883235,0.0001695,53.2189,195.4515,105.8807,254.2372,0.00025341,3.746e-05,0.0,0 STARLINK-4542,1 53435U 22097AZ  24217.94972892  .00003746  00000-0  25341-3 0  9994,2 53435  53.2189 195.4515 0001695 105.8807 254.2372 15.08832350110945,6917.904,95.438,540.941,538.596,0.0
53435.0,STARLINK-4542,PAYLOAD,2024-08-05 05:09:09,15.08838724,0.0001576,53.2178,194.2651,95.8207,264.2965,-6.8273e-06,-3.97e-06,0.0,0 STARLINK-4542,1 53435U 22097AZ  24218.21469119 -.00000397  00000-0 -68273-5 0  9992,2 53435  53.2178 194.2651 0001576  95.8207 264.2965 15.08838724110525,6917.884,95.438,540.84,538.659,0.0
53435.0,STARLINK-4542,PAYLOAD,2024-08-06 04:59:57,15.08828706,0.0001374,53.217,189.8028,100.8745,259.2401,-1.7391e-05,-5.65e-06,0.0,0 STARLINK-4542,1 53435U 22097AZ  24219.20829881 -.00000565  00000-0 -17391-4 0  9999,2 53435  53.2170 189.8028 0001374 100.8745 259.2401 15.08828706110679,6917.915,95.438,540.73,538.829,0.0
53435.0,STARLINK-4542,PAYLOAD,2024-08-06 14:32:15,15.08836436,0.0001396,53.2169,188.0171,99.0242,261.0908,-1.7364e-05,-5.64e-06,0.0,0 STARLINK-4542,1 53435U 22097AZ  24219.60573561 -.00000564  00000-0 -17364-4 0  9993,2 53435  53.2169 188.0171 0001396  99.0242 261.0908 15.08836436111192,6917.891,95.438,540.722,538.791,0.0
53435.0,STARLINK-4542,PAYLOAD,2024-08-06 22:29:11,15.08830193,0.000132,53.2168,186.5332,102.0523,258.0617,5.2227e-05,5.43e-06,0.0,0 STARLINK-4542,1 53435U 22097AZ  24219.93693855  .00000543  00000-0  52227-4 0  9990,2 53435  53.2168 186.5332 0001320 102.0523 258.0617 15.08830193111240,6917.91,95.438,540.689,538.862,0.0
53435.0,STARLINK-4542,PAYLOAD,2024-08-07 01:39:57,15.08834089,0.0001338,53.2171,185.9396,101.0665,259.0477,8.639e-05,1.087e-05,0.0,0 STARLINK-4542,1 53435U 22097AZ  24220.06941603  .00001087  00000-0  86390-4 0  9995,2 53435  53.2171 185.9396 0001338 101.0665 259.0477 15.08834089111267,6917.898,95.438,540.689,538.838,0.0
53435.0,STARLINK-4542,PAYLOAD,2024-08-08 07:52:17,15.08840451,0.0001401,53.2174,180.2897,106.9464,253.1682,0.00017394,2.481e-05,0.0,0 STARLINK-4542,1 53435U 22097AZ  24221.32797541  .00002481  00000-0  17394-3 0  9991,2 53435  53.2174 180.2897 0001401 106.9464 253.1682 15.08840451111450,6917.879,95.438,540.713,538.775,0.0
53435.0,STARLINK-4542,PAYLOAD,2024-08-09 14:04:35,15.08859852,0.000132,53.2164,174.6433,84.0219,276.0924,0.00015205,2.134e-05,0.0,0 STARLINK-4542,1 53435U 22097AZ  24222.58652305  .00002134  00000-0  15205-3 0  9992,2 53435  53.2164 174.6433 0001320  84.0219 276.0924 15.08859852111645,6917.82,95.436,540.598,538.772,0.0
53435.0,STARLINK-4542,PAYLOAD,2024-08-09 20:26:10,15.08825071,0.0001398,53.2168,173.4458,83.8087,276.3065,-5.6542e-05,-1.187e-05,0.0,0 STARLINK-4542,1 53435U 22097AZ  24222.85151132 -.00001187  00000-0 -56542-4 0  9993,2 53435  53.2168 173.4458 0001398  83.8087 276.3065 15.08825071111227,6917.926,95.438,540.758,538.824,0.0
53435.0,STARLINK-4542,PAYLOAD,2024-08-10 04:23:04,15.08845131,0.0001301,53.217,171.9583,86.3968,273.7173,0.00011319,1.514e-05,0.0,0 STARLINK-4542,1 53435U 22097AZ  24223.18269423  .00001514  00000-0  11319-3 0  9997,2 53435  53.2170 171.9583 0001301  86.3968 273.7173 15.08845131111277,6917.865,95.437,540.63,538.83,0.0
53435.0,STARLINK-4542,PAYLOAD,2024-08-10 20:16:56,15.08840552,0.000137,53.217,168.9864,84.8397,275.2752,7.4365e-05,8.96e-06,0.0,0 STARLINK-4542,1 53435U 22097AZ  24223.84509892  .00000896  00000-0  74365-4 0  9990,2 53435  53.2170 168.9864 0001370  84.8397 275.2752 15.08840552111373,6917.879,95.438,540.691,538.796,0.0
53435.0,STARLINK-4542,PAYLOAD,2024-08-11 20:07:43,15.08839475,0.0002522,53.2143,164.5285,80.029,280.0987,0.00017016,2.421e-05,0.0,0 STARLINK-4542,1 53435U 22097AZ  24224.83869690  .00002421  00000-0  17016-3 0  9990,2 53435  53.2143 164.5285 0002522  80.0290 280.0987 15.08839475111985,6917.882,95.438,541.492,538.002,0.0
53435.0,STARLINK-4542,PAYLOAD,2024-08-12 02:29:16,15.08837257,0.000161,53.2161,163.3383,84.1985,275.9191,0.00010289,1.35e-05,0.0,0 STARLINK-4542,1 53435U 22097AZ  24225.10365789  .00001350  00000-0  10289-3 0  9996,2 53435  53.2161 163.3383 0001610  84.1985 275.9191 15.08837257111564,6917.889,95.438,540.868,538.64,0.0
53435.0,STARLINK-4542,PAYLOAD,2024-08-12 23:09:15,15.0886165,0.0001598,53.216,159.4713,97.0082,263.1092,0.00038381,5.829e-05,0.0,0 STARLINK-4542,1 53435U 22097AZ  24225.96476271  .00005829  00000-0  38381-3 0  9997,2 53435  53.2160 159.4713 0001598  97.0082 263.1092 15.08861650112151,6917.814,95.436,540.785,538.574,0.0
53435.0,STARLINK-4542,PAYLOAD,2024-08-13 02:20:03,15.08796972,0.0001686,53.2157,158.8759,97.9687,262.1497,-0.0009299,-0.0001504,0.0,0 STARLINK-4542,1 53435U 22097AZ  24226.09726349 -.00015040  00000-0 -92990-3 0  9990,2 53435  53.2157 158.8759 0001686  97.9687 262.1497 15.08796972111711,6918.012,95.44,541.043,538.711,0.0
53435.0,STARLINK-4542,PAYLOAD,2024-08-13 05:30:50,15.08776908,0.0001837,53.2172,158.2808,98.1618,261.9582,-0.0013059,-0.00020976,0.0,0 STARLINK-4542,1 53435U 22097AZ  24226.22975192 -.00020976  00000-0 -13059-2 0  9999,2 53435  53.2172 158.2808 0001837  98.1618 261.9582 15.08776908111733,6918.073,95.442,541.209,538.667,0.0
53435.0,STARLINK-4542,PAYLOAD,2024-08-13 19:49:19,15.08805153,0.000188,53.2156,155.6073,92.793,267.3277,-0.00047016,-7.756e-05,0.0,0 STARLINK-4542,1 53435U 22097AZ  24226.82592002 -.00007756  00000-0 -47016-3 0  9992,2 53435  53.2156 155.6073 0001880  92.7930 267.3277 15.08805153111821,6917.987,95.44,541.152,538.551,0.0
53435.0,STARLINK-4542,PAYLOAD,2024-08-13 23:00:05,15.08838902,0.0001534,53.2163,155.0134,102.0966,258.0198,0.00045563,6.971e-05,0.0,0 STARLINK-4542,1 53435U 22097AZ  24226.95839169  .00006971  00000-0  45563-3 0  9995,2 53435  53.2163 155.0134 0001534 102.0966 258.0198 15.08838902112302,6917.884,95.438,540.81,538.688,0.0
53435.0,STARLINK-4542,PAYLOAD,2024-08-14 02:10:51,15.08844126,0.0001325,53.215,154.4195,96.6007,263.5136,0.00055386,8.539e-05,0.0,0 STARLINK-4542,1 53435U 22097AZ  24227.09087081  .00008539  00000-0  55386-3 0  9995,2 53435  53.2150 154.4195 0001325  96.6007 263.5136 15.08844126111868,6917.868,95.437,540.649,538.816,0.0
53435.0,STARLINK-4542,PAYLOAD,2024-08-14 11:43:09,15.08861209,0.0001384,53.2166,152.6357,102.9273,257.1874,0.00068935,0.00010706,0.0,0 STARLINK-4542,1 53435U 22097AZ  24227.48830133  .00010706  00000-0  68935-3 0  9995,2 53435  53.2166 152.6357 0001384 102.9273 257.1874 15.08861209111922,6917.816,95.436,540.638,538.723,0.0
53435.0,STARLINK-4542,PAYLOAD,2024-08-14 22:50:52,15.08826879,0.0001166,53.2159,150.5524,86.5485,273.564,4.1238e-05,3.68e-06,0.0,0 STARLINK-4542,1 53435U 22097AZ  24227.95199435  .00000368  00000-0  41238-4 0  9991,2 53435  53.2159 150.5524 0001166  86.5485 273.5640 15.08826879112453,6917.92,95.438,540.592,538.979,0.0
53435.0,STARLINK-4542,PAYLOAD,2024-08-15 00:26:15,15.0882877,0.0001295,53.2154,150.2557,94.8455,265.2685,9.439e-05,1.214e-05,0.0,0 STARLINK-4542,1 53435U 22097AZ  24228.01823422  .00001214  00000-0  94390-4 0  9997,2 53435  53.2154 150.2557 0001295  94.8455 265.2685 15.08828770112003,6917.915,95.438,540.676,538.884,0.0
53435.0,STARLINK-4542,PAYLOAD,2024-08-15 11:33:56,15.08847311,0.0001063,53.2154,148.1738,74.658,285.453,0.00053528,8.243e-05,0.0,0 STARLINK-4542,1 53435U 22097AZ  24228.48190904  .00008243  00000-0  53528-3 0  9996,2 53435  53.2154 148.1738 0001063  74.6580 285.4530 15.08847311112531,6917.858,95.437,540.458,538.988,0.0
53435.0,STARLINK-4542,PAYLOAD,2024-08-15 22:41:39,15.08836969,0.0001045,53.2151,146.0929,83.7651,276.346,-0.00020125,-3.489e-05,0.0,0 STARLINK-4542,1 53435U 22097AZ  24228.94559205 -.00003489  00000-0 -20125-3 0  9996,2 53435  53.2151 146.0929 0001045  83.7651 276.3460 15.08836969112603,6917.89,95.438,540.478,539.032,0.0
53435.0,STARLINK-4542,PAYLOAD,2024-08-16 01:52:25,15.08840786,0.0001149,53.2161,145.5025,98.9407,261.1715,-0.00010412,-1.945e-05,0.0,0 STARLINK-4542,1 53435U 22097AZ  24229.07807006 -.00001945  00000-0 -10412-3 0  9999,2 53435  53.2161 145.5025 0001149  98.9407 261.1715 15.08840786112165,6917.878,95.438,540.538,538.948,0.0
53435.0,STARLINK-4542,PAYLOAD,2024-08-17 03:18:35,15.08848134,0.000124,53.2157,140.7417,88.9256,271.1878,9.91e-05,1.29e-05,0.0,0 STARLINK-4542,1 53435U 22097AZ  24230.13790631  .00001290  00000-0  99100-4 0  9996,2 53435  53.2157 140.7417 0001240  88.9256 271.1878 15.08848134112329,6917.856,95.437,540.578,538.863,0.0
53435.0,STARLINK-4542,PAYLOAD,2024-08-18 01:33:59,15.0884048,0.0001296,53.2156,136.5763,94.6546,265.4594,4.8568e-05,4.85e-06,0.0,0 STARLINK-4542,1 53435U 22097AZ  24231.06527248  .00000485  00000-0  48568-4 0  9998,2 53435  53.2156 136.5763 0001296  94.6546 265.4594 15.08840480112464,6917.879,95.438,540.64,538.847,0.0
53435.0,STARLINK-4542,PAYLOAD,2024-08-18 22:14:00,15.08841267,0.0001431,53.2163,132.7089,101.1966,258.9187,8.9228e-05,1.132e-05,0.0,0 STARLINK-4542,1 53435U 22097AZ  24231.92639330  .00001132  00000-0  89228-4 0  9997,2 53435  53.2163 132.7089 0001431 101.1966 258.9187 15.08841267113057,6917.877,95.437,540.731,538.752,0.0
